[{"OBJECT_NAME":"HELIOS 1B","OBJECT_ID":"1999-064A","EPOCH":"2026-04-26T17:36:34.660800","MEAN_MOTION":14.87864898,"ECCENTRICITY":3.73e-5,"INCLINATION":98.1651,"RA_OF_ASC_NODE":20.3804,"ARG_OF_PERICENTER":88.4042,"MEAN_ANOMALY":271.7216,"EPHEMERIS_TYPE":0,"CLASSIFICATION_TYPE":"U","NORAD_CAT_ID":25977,"ELEMENT_SET_NO":999,"REV_AT_EPOCH":69240,"BSTAR":0.00018224,"MEAN_MOTION_DOT":1.608e-5,"MEAN_MOTION_DDOT":0},{"OBJECT_NAME":"TERRA","OBJECT_ID":"1999-068A","EPOCH":"2026-04-26T21:10:49.384128","MEAN_MOTION":14.61060954,"ECCENTRICITY":0.0003157,"INCLINATION":97.9501,"RA_OF_ASC_NODE":168.4524,"ARG_OF_PERICENTER":54.7148,"MEAN_ANOMALY":122.519,"EPHEMERIS_TYPE":0,"CLASSIFICATION_TYPE":"U","NORAD_CAT_ID":25994,"ELEMENT_SET_NO":999,"REV_AT_EPOCH":40211,"BSTAR":8.6257e-5,"MEAN_MOTION_DOT":3.79e-6,"MEAN_MOTION_DDOT":0},{"OBJECT_NAME":"SL-16 R/B","OBJECT_ID":"2000-006B","EPOCH":"2026-04-26T20:14:25.115136","MEAN_MOTION":14.15831208,"ECCENTRICITY":0.0014589,"INCLINATION":71.0043,"RA_OF_ASC_NODE":356.5865,"ARG_OF_PERICENTER":111.1873,"MEAN_ANOMALY":249.0811,"EPHEMERIS_TYPE":0,"CLASSIFICATION_TYPE":"U","NORAD_CAT_ID":26070,"ELEMENT_SET_NO":999,"REV_AT_EPOCH":35537,"BSTAR":0.00017445,"MEAN_MOTION_DOT":2.96e-6,"MEAN_MOTION_DDOT":0},{"OBJECT_NAME":"TITAN 4B R/B","OBJECT_ID":"2000-047B","EPOCH":"2026-04-26T20:37:39.091008","MEAN_MOTION":15.09919267,"ECCENTRICITY":0.0042627,"INCLINATION":67.9884,"RA_OF_ASC_NODE":265.0151,"ARG_OF_PERICENTER":340.6275,"MEAN_ANOMALY":19.3251,"EPHEMERIS_TYPE":0,"CLASSIFICATION_TYPE":"U","NORAD_CAT_ID":26474,"ELEMENT_SET_NO":999,"REV_AT_EPOCH":40018,"BSTAR":0.00019625,"MEAN_MOTION_DOT":3.119e-5,"MEAN_MOTION_DDOT":0},{"OBJECT_NAME":"ENVISAT","OBJECT_ID":"2002-009A","EPOCH":"2026-04-26T20:37:23.918304","MEAN_MOTION":14.39052146,"ECCENTRICITY":0.0001143,"INCLINATION":98.3799,"RA_OF_ASC_NODE":69.3338,"ARG_OF_PERICENTER":86.9559,"MEAN_ANOMALY":297.5378,"EPHEMERIS_TYPE":0,"CLASSIFICATION_TYPE":"U","NORAD_CAT_ID":27386,"ELEMENT_SET_NO":999,"REV_AT_EPOCH":26610,"BSTAR":4.7238e-5,"MEAN_MOTION_DOT":1.03e-6,"MEAN_MOTION_DDOT":0},{"OBJECT_NAME":"IDEFIX & ARIANE 42P R/B","OBJECT_ID":"2002-021B","EPOCH":"2026-04-26T19:26:21.643008","MEAN_MOTION":14.31056054,"ECCENTRICITY":0.0012785,"INCLINATION":98.592,"RA_OF_ASC_NODE":54.8579,"ARG_OF_PERICENTER":49.4322,"MEAN_ANOMALY":310.7972,"EPHEMERIS_TYPE":0,"CLASSIFICATION_TYPE":"U","NORAD_CAT_ID":27422,"ELEMENT_SET_NO":999,"REV_AT_EPOCH":25090,"BSTAR":0.00010396,"MEAN_MOTION_DOT":2.3e-6,"MEAN_MOTION_DDOT":0},{"OBJECT_NAME":"AQUA","OBJECT_ID":"2002-022A","EPOCH":"2026-04-26T20:37:26.315904","MEAN_MOTION":14.6207591,"ECCENTRICITY":0.0002042,"INCLINATION":98.4244,"RA_OF_ASC_NODE":85.131,"ARG_OF_PERICENTER":95.0121,"MEAN_ANOMALY":295.2207,"EPHEMERIS_TYPE":0,"CLASSIFICATION_TYPE":"U","NORAD_CAT_ID":27424,"ELEMENT_SET_NO":999,"REV_AT_EPOCH":27577,"BSTAR":0.00019419,"MEAN_MOTION_DOT":9.26e-6,"MEAN_MOTION_DDOT":0},{"OBJECT_NAME":"CZ-4B R/B","OBJECT_ID":"2002-024C","EPOCH":"2026-04-26T18:09:03.234816","MEAN_MOTION":14.1455592,"ECCENTRICITY":0.0049176,"INCLINATION":98.8744,"RA_OF_ASC_NODE":169.8983,"ARG_OF_PERICENTER":245.9199,"MEAN_ANOMALY":223.2913,"EPHEMERIS_TYPE":0,"CLASSIFICATION_TYPE":"U","NORAD_CAT_ID":27432,"ELEMENT_SET_NO":999,"REV_AT_EPOCH":23603,"BSTAR":4.6463e-5,"MEAN_MOTION_DOT":4.5e-7,"MEAN_MOTION_DDOT":0},{"OBJECT_NAME":"MIDORI II (ADEOS-II)","OBJECT_ID":"2002-056A","EPOCH":"2026-04-26T19:49:56.727264","MEAN_MOTION":14.29319243,"ECCENTRICITY":8.64e-5,"INCLINATION":98.7841,"RA_OF_ASC_NODE":75.662,"ARG_OF_PERICENTER":143.2461,"MEAN_ANOMALY":216.8779,"EPHEMERIS_TYPE":0,"CLASSIFICATION_TYPE":"U","NORAD_CAT_ID":27597,"ELEMENT_SET_NO":999,"REV_AT_EPOCH":21717,"BSTAR":0.00013612,"MEAN_MOTION_DOT":3.01e-6,"MEAN_MOTION_DDOT":0},{"OBJECT_NAME":"H-2A R/B","OBJECT_ID":"2002-056E","EPOCH":"2026-04-26T20:36:05.823936","MEAN_MOTION":14.33793886,"ECCENTRICITY":0.0070689,"INCLINATION":98.3276,"RA_OF_ASC_NODE":75.4153,"ARG_OF_PERICENTER":19.1221,"MEAN_ANOMALY":35.1,"EPHEMERIS_TYPE":0,"CLASSIFICATION_TYPE":"U","NORAD_CAT_ID":27601,"ELEMENT_SET_NO":999,"REV_AT_EPOCH":22101,"BSTAR":0.00012865,"MEAN_MOTION_DOT":3.26e-6,"MEAN_MOTION_DDOT":0},{"OBJECT_NAME":"CZ-4B R/B","OBJECT_ID":"2003-049C","EPOCH":"2026-04-26T20:44:24.181728","MEAN_MOTION":14.55060848,"ECCENTRICITY":0.004934,"INCLINATION":98.6899,"RA_OF_ASC_NODE":113.6718,"ARG_OF_PERICENTER":84.847,"MEAN_ANOMALY":275.8354,"EPHEMERIS_TYPE":0,"CLASSIFICATION_TYPE":"U","NORAD_CAT_ID":28059,"ELEMENT_SET_NO":999,"REV_AT_EPOCH":19360,"BSTAR":0.00010484,"MEAN_MOTION_DOT":4.08e-6,"MEAN_MOTION_DDOT":0},{"OBJECT_NAME":"CZ-2C R/B","OBJECT_ID":"2004-012C","EPOCH":"2026-04-26T17:49:25.214880","MEAN_MOTION":15.70496173,"ECCENTRICITY":0.0013552,"INCLINATION":97.7136,"RA_OF_ASC_NODE":186.7879,"ARG_OF_PERICENTER":133.2081,"MEAN_ANOMALY":227.0315,"EPHEMERIS_TYPE":0,"CLASSIFICATION_TYPE":"U","NORAD_CAT_ID":28222,"ELEMENT_SET_NO":999,"REV_AT_EPOCH":21180,"BSTAR":0.00071707,"MEAN_MOTION_DOT":0.00088927,"MEAN_MOTION_DDOT":0},{"OBJECT_NAME":"SL-16 R/B","OBJECT_ID":"2004-021B","EPOCH":"2026-04-26T18:05:12.187392","MEAN_MOTION":14.14604119,"ECCENTRICITY":0.0006882,"INCLINATION":70.9983,"RA_OF_ASC_NODE":131.6297,"ARG_OF_PERICENTER":308.4606,"MEAN_ANOMALY":51.5899,"EPHEMERIS_TYPE":0,"CLASSIFICATION_TYPE":"U","NORAD_CAT_ID":28353,"ELEMENT_SET_NO":999,"REV_AT_EPOCH":12963,"BSTAR":-7.811e-5,"MEAN_MOTION_DOT":-1.98e-6,"MEAN_MOTION_DDOT":0},{"OBJECT_NAME":"CZ-4B R/B","OBJECT_ID":"2004-035C","EPOCH":"2026-04-26T16:03:05.102784","MEAN_MOTION":15.29830499,"ECCENTRICITY":0.0032414,"INCLINATION":97.3423,"RA_OF_ASC_NODE":150.3423,"ARG_OF_PERICENTER":155.4809,"MEAN_ANOMALY":204.7982,"EPHEMERIS_TYPE":0,"CLASSIFICATION_TYPE":"U","NORAD_CAT_ID":28415,"ELEMENT_SET_NO":999,"REV_AT_EPOCH":18724,"BSTAR":0.00031333,"MEAN_MOTION_DOT":9.121e-5,"MEAN_MOTION_DDOT":0},{"OBJECT_NAME":"CZ-2C R/B","OBJECT_ID":"2004-046B","EPOCH":"2026-04-26T17:25:49.735776","MEAN_MOTION":14.27010782,"ECCENTRICITY":0.0139768,"INCLINATION":98.1969,"RA_OF_ASC_NODE":28.7157,"ARG_OF_PERICENTER":13.3432,"MEAN_ANOMALY":347.1386,"EPHEMERIS_TYPE":0,"CLASSIFICATION_TYPE":"U","NORAD_CAT_ID":28480,"ELEMENT_SET_NO":999,"REV_AT_EPOCH":11535,"BSTAR":8.0305e-5,"MEAN_MOTION_DOT":1.75e-6,"MEAN_MOTION_DDOT":0},{"OBJECT_NAME":"ARIANE 5 R/B","OBJECT_ID":"2004-049H","EPOCH":"2026-04-26T17:34:48.959040","MEAN_MOTION":14.8535642,"ECCENTRICITY":0.008373,"INCLINATION":98.269,"RA_OF_ASC_NODE":287.01,"ARG_OF_PERICENTER":194.5347,"MEAN_ANOMALY":165.3458,"EPHEMERIS_TYPE":0,"CLASSIFICATION_TYPE":"U","NORAD_CAT_ID":28499,"ELEMENT_SET_NO":999,"REV_AT_EPOCH":15292,"BSTAR":0.00013168,"MEAN_MOTION_DOT":1.141e-5,"MEAN_MOTION_DDOT":0},{"OBJECT_NAME":"CZ-2D R/B","OBJECT_ID":"2005-024B","EPOCH":"2026-04-26T14:48:21.256416","MEAN_MOTION":15.64444927,"ECCENTRICITY":0.0004926,"INCLINATION":97.3543,"RA_OF_ASC_NODE":133.6717,"ARG_OF_PERICENTER":168.3041,"MEAN_ANOMALY":191.8334,"EPHEMERIS_TYPE":0,"CLASSIFICATION_TYPE":"U","NORAD_CAT_ID":28738,"ELEMENT_SET_NO":999,"REV_AT_EPOCH":14726,"BSTAR":0.00052862,"MEAN_MOTION_DOT":0.00050841,"MEAN_MOTION_DDOT":0}]
