HELIOS 1B               
1 25977U 99064A   26116.73373450  .00001608  00000+0  18224-3 0  9990
2 25977  98.1651  20.3804 0000373  88.4042 271.7216 14.87864898692408
TERRA                   
1 25994U 99068A   26116.88251602  .00000379  00000+0  86257-4 0  9999
2 25994  97.9501 168.4524 0003157  54.7148 122.5190 14.61060954402111
SL-16 R/B               
1 26070U 00006B   26116.84334624  .00000296  00000+0  17445-3 0  9991
2 26070  71.0043 356.5865 0014589 111.1873 249.0811 14.15831208355370
TITAN 4B R/B            
1 26474U 00047B   26116.85948022  .00003119  00000+0  19625-3 0  9997
2 26474  67.9884 265.0151 0042627 340.6275  19.3251 15.09919267400188
ENVISAT                 
1 27386U 02009A   26116.85930461  .00000103  00000+0  47238-4 0  9990
2 27386  98.3799  69.3338 0001143  86.9559 297.5378 14.39052146266107
IDEFIX & ARIANE 42P R/B 
1 27422U 02021B   26116.80997272  .00000230  00000+0  10396-3 0  9998
2 27422  98.5920  54.8579 0012785  49.4322 310.7972 14.31056054250901
AQUA                    
1 27424U 02022A   26116.85933236  .00000926  00000+0  19419-3 0  9993
2 27424  98.4244  85.1310 0002042  95.0121 295.2207 14.62075910275776
CZ-4B R/B               
1 27432U 02024C   26116.75628744  .00000045  00000+0  46463-4 0  9990
2 27432  98.8744 169.8983 0049176 245.9199 223.2913 14.14555920236032
MIDORI II (ADEOS-II)    
1 27597U 02056A   26116.82635101  .00000301  00000+0  13612-3 0  9994
2 27597  98.7841  75.6620 0000864 143.2461 216.8779 14.29319243217170
H-2A R/B                
1 27601U 02056E   26116.85840074  .00000326  00000+0  12865-3 0  9996
2 27601  98.3276  75.4153 0070689  19.1221  35.1000 14.33793886221011
CZ-4B R/B               
1 28059U 03049C   26116.86416877  .00000408  00000+0  10484-3 0  9994
2 28059  98.6899 113.6718 0049340  84.8470 275.8354 14.55060848193607
CZ-2C R/B               
1 28222U 04012C   26116.74265295  .00088927  00000+0  71707-3 0  9997
2 28222  97.7136 186.7879 0013552 133.2081 227.0315 15.70496173211806
SL-16 R/B               
1 28353U 04021B   26116.75361328 -.00000198  00000+0 -78110-4 0  9999
2 28353  70.9983 131.6297 0006882 308.4606  51.5899 14.14604119129638
CZ-4B R/B               
1 28415U 04035C   26116.66880906  .00009121  00000+0  31333-3 0  9999
2 28415  97.3423 150.3423 0032414 155.4809 204.7982 15.29830499187248
CZ-2C R/B               
1 28480U 04046B   26116.72627009  .00000175  00000+0  80305-4 0  9997
2 28480  98.1969  28.7157 0139768  13.3432 347.1386 14.27010782115355
ARIANE 5 R/B            
1 28499U 04049H   26116.73251110  .00001141  00000+0  13168-3 0  9993
2 28499  98.2690 287.0100 0083730 194.5347 165.3458 14.85356420152929
CZ-2D R/B               
1 28738U 05024B   26116.61691269  .00050841  00000+0  52862-3 0  9998
2 28738  97.3543 133.6717 0004926 168.3041 191.8334 15.64444927147268
